start=new Date('2023-07-04T00:00:00.000Z').valueOf();
sats=[{"DECAY_DATE":null,"OBJECT_NAME":"STARLINK-1899","NORAD_CAT_ID":"46787","MEAN_ELEMENT_THEORY":"SGP4","INCLINATION":"53.0540","EPHEMERIS_TYPE":"0","TLE_LINE2":"2 46787  53.0540  15.0409 0000995  67.1100 292.9993 15.06404675148934","CLASSIFICATION_TYPE":"U","OBJECT_ID":"2020-074BA","RA_OF_ASC_NODE":"15.0409","APOAPSIS":"547.888","BSTAR":"0.00061778000000","ELEMENT_SET_NO":"999","SEMIMAJOR_AXIS":"6925.334","MEAN_MOTION":"15.06404675","MEAN_MOTION_DDOT":"0.0000000000000","MEAN_ANOMALY":"292.9993","EPOCH":"2023-07-02T18:59:26.998080","MEAN_MOTION_DOT":"0.00008933","CENTER_NAME":"EARTH","LAUNCH_DATE":"2020-10-24","PERIAPSIS":"546.510","OBJECT_TYPE":"PAYLOAD","COUNTRY_CODE":"US","FILE":"3948053","TLE_LINE1":"1 46787U 20074BA  23183.79128470  .00008933  00000-0  61778-3 0  9995","RCS_SIZE":"LARGE","REV_AT_EPOCH":"14893","REF_FRAME":"TEME","GP_ID":"234682294","ECCENTRICITY":"0.00009950","SITE":"AFETR","TIME_SYSTEM":"UTC","PERIOD":"95.592","ARG_OF_PERICENTER":"67.1100"},{"SITE":"AFETR","PERIOD":"95.592","ARG_OF_PERICENTER":"96.1038","TIME_SYSTEM":"UTC","ECCENTRICITY":"0.00010190","GP_ID":"234684431","REF_FRAME":"TEME","TLE_LINE1":"1 46788U 20074BB  23183.78390734  .00003669  00000-0  26506-3 0  9990","REV_AT_EPOCH":"14893","RCS_SIZE":"LARGE","FILE":"3948124","COUNTRY_CODE":"US","OBJECT_TYPE":"PAYLOAD","CENTER_NAME":"EARTH","MEAN_MOTION_DOT":"0.00003669","LAUNCH_DATE":"2020-10-24","PERIAPSIS":"546.505","EPOCH":"2023-07-02T18:48:49.594176","MEAN_ANOMALY":"264.0067","MEAN_MOTION_DDOT":"0.0000000000000","MEAN_MOTION":"15.06401076","SEMIMAJOR_AXIS":"6925.345","ELEMENT_SET_NO":"999","BSTAR":"0.00026506000000","APOAPSIS":"547.916","RA_OF_ASC_NODE":"15.0776","CLASSIFICATION_TYPE":"U","OBJECT_ID":"2020-074BB","EPHEMERIS_TYPE":"0","TLE_LINE2":"2 46788  53.0541  15.0776 0001019  96.1038 264.0067 15.06401076148937","INCLINATION":"53.0541","NORAD_CAT_ID":"46788","MEAN_ELEMENT_THEORY":"SGP4","DECAY_DATE":null,"OBJECT_NAME":"STARLINK-1929"},{"FILE":"3948142","RCS_SIZE":"LARGE","TLE_LINE1":"1 46789U 20074BC  23184.00601773  .00012800  00000-0  87644-3 0  9992","REV_AT_EPOCH":"14854","GP_ID":"234684461","REF_FRAME":"TEME","TIME_SYSTEM":"UTC","PERIOD":"95.592","ARG_OF_PERICENTER":"81.1424","SITE":"AFETR","ECCENTRICITY":"0.00010330","MEAN_MOTION":"15.06407188","SEMIMAJOR_AXIS":"6925.327","ELEMENT_SET_NO":"999","MEAN_ANOMALY":"278.9682","MEAN_MOTION_DDOT":"0.0000000000000","LAUNCH_DATE":"2020-10-24","PERIAPSIS":"546.476","MEAN_MOTION_DOT":"0.00012800","CENTER_NAME":"EARTH","EPOCH":"2023-07-03T00:08:39.931872","COUNTRY_CODE":"US","OBJECT_TYPE":"PAYLOAD","OBJECT_ID":"2020-074BC","CLASSIFICATION_TYPE":"U","TLE_LINE2":"2 46789  53.0539  44.2400 0001033  81.1424 278.9682 15.06407188148546","EPHEMERIS_TYPE":"0","APOAPSIS":"547.907","RA_OF_ASC_NODE":"44.2400","BSTAR":"0.00087644000000","OBJECT_NAME":"STARLINK-1930","DECAY_DATE":null,"INCLINATION":"53.0539","MEAN_ELEMENT_THEORY":"SGP4","NORAD_CAT_ID":"46789"},{"DECAY_DATE":null,"OBJECT_NAME":"STARLINK-1931","NORAD_CAT_ID":"46790","MEAN_ELEMENT_THEORY":"SGP4","INCLINATION":"53.0551","EPHEMERIS_TYPE":"0","TLE_LINE2":"2 46790  53.0551  44.5457 0001155  93.4922 266.6199 15.06403278148522","OBJECT_ID":"2020-074BD","CLASSIFICATION_TYPE":"U","BSTAR":"0.00028013000000","RA_OF_ASC_NODE":"44.5457","APOAPSIS":"548.003","MEAN_MOTION_DDOT":"0.0000000000000","MEAN_ANOMALY":"266.6199","ELEMENT_SET_NO":"999","SEMIMAJOR_AXIS":"6925.339","MEAN_MOTION":"15.06403278","OBJECT_TYPE":"PAYLOAD","COUNTRY_CODE":"US","EPOCH":"2023-07-02T21:40:00.467616","CENTER_NAME":"EARTH","MEAN_MOTION_DOT":"0.00003894","LAUNCH_DATE":"2020-10-24","PERIAPSIS":"546.404","TLE_LINE1":"1 46790U 20074BD  23183.90278319  .00003894  00000-0  28013-3 0  9996","REV_AT_EPOCH":"14852","RCS_SIZE":"LARGE","FILE":"3948142","ECCENTRICITY":"0.00011550","SITE":"AFETR","ARG_OF_PERICENTER":"93.4922","PERIOD":"95.592","TIME_SYSTEM":"UTC","REF_FRAME":"TEME","GP_ID":"234684458"},{"BSTAR":"0.00107050000000","APOAPSIS":"547.906","RA_OF_ASC_NODE":"42.6878","OBJECT_ID":"2020-074BE","CLASSIFICATION_TYPE":"U","EPHEMERIS_TYPE":"0","TLE_LINE2":"2 46791  53.0544  42.6878 0001088 112.1411 247.9694 15.06419936148584","INCLINATION":"53.0544","MEAN_ELEMENT_THEORY":"SGP4","NORAD_CAT_ID":"46791","DECAY_DATE":null,"OBJECT_NAME":"STARLINK-1933","SITE":"AFETR","ARG_OF_PERICENTER":"112.1411","PERIOD":"95.591","TIME_SYSTEM":"UTC","ECCENTRICITY":"0.00010880","GP_ID":"234692006","REF_FRAME":"TEME","TLE_LINE1":"1 46791U 20074BE  23184.31561244  .00015708  00000-0  10705-2 0  9990","RCS_SIZE":"LARGE","REV_AT_EPOCH":"14858","FILE":"3948434","COUNTRY_CODE":"US","OBJECT_TYPE":"PAYLOAD","MEAN_MOTION_DOT":"0.00015708","CENTER_NAME":"EARTH","PERIAPSIS":"546.399","LAUNCH_DATE":"2020-10-24","EPOCH":"2023-07-03T07:34:28.914816","MEAN_ANOMALY":"247.9694","MEAN_MOTION_DDOT":"0.0000000000000","MEAN_MOTION":"15.06419936","ELEMENT_SET_NO":"999","SEMIMAJOR_AXIS":"6925.287"},{"ECCENTRICITY":"0.00010560","SITE":"AFETR","PERIOD":"95.591","ARG_OF_PERICENTER":"103.4925","TIME_SYSTEM":"UTC","REF_FRAME":"TEME","GP_ID":"234691503","RCS_SIZE":"LARGE","TLE_LINE1":"1 46792U 20074BF  23184.27598057  .00015393  00000-0  10497-2 0  9996","REV_AT_EPOCH":"14871","FILE":"3948434","OBJECT_TYPE":"PAYLOAD","COUNTRY_CODE":"US","EPOCH":"2023-07-03T06:37:24.721248","MEAN_MOTION_DOT":"0.00015393","CENTER_NAME":"EARTH","LAUNCH_DATE":"2020-10-24","PERIAPSIS":"546.450","MEAN_MOTION_DDOT":"0.0000000000000","MEAN_ANOMALY":"256.6182","SEMIMAJOR_AXIS":"6925.316","ELEMENT_SET_NO":"999","MEAN_MOTION":"15.06410522","BSTAR":"0.00104970000000","RA_OF_ASC_NODE":"32.8692","APOAPSIS":"547.913","EPHEMERIS_TYPE":"0","TLE_LINE2":"2 46792  53.0549  32.8692 0001056 103.4925 256.6182 15.06410522148719","CLASSIFICATION_TYPE":"U","OBJECT_ID":"2020-074BF","NORAD_CAT_ID":"46792","MEAN_ELEMENT_THEORY":"SGP4","INCLINATION":"53.0549","OBJECT_NAME":"STARLINK-1934","DECAY_DATE":null},{"EPHEMERIS_TYPE":"0","TLE_LINE2":"2 46793  53.0549  44.2288 0001041  90.4042 269.7067 15.06405212148534","OBJECT_ID":"2020-074BG","CLASSIFICATION_TYPE":"U","RA_OF_ASC_NODE":"44.2288","APOAPSIS":"547.919","BSTAR":"0.00049353000000","DECAY_DATE":null,"OBJECT_NAME":"STARLINK-1941","NORAD_CAT_ID":"46793","MEAN_ELEMENT_THEORY":"SGP4","INCLINATION":"53.0549","FILE":"3948127","RCS_SIZE":"LARGE","TLE_LINE1":"1 46793U 20074BG  23183.97281207  .00007078  00000-0  49353-3 0  9994","REV_AT_EPOCH":"14853","REF_FRAME":"TEME","GP_ID":"234684489","ECCENTRICITY":"0.00010410","SITE":"AFETR","ARG_OF_PERICENTER":"90.4042","PERIOD":"95.592","TIME_SYSTEM":"UTC","SEMIMAJOR_AXIS":"6925.333","ELEMENT_SET_NO":"999","MEAN_MOTION":"15.06405212","MEAN_MOTION_DDOT":"0.0000000000000","MEAN_ANOMALY":"269.7067","EPOCH":"2023-07-02T23:20:50.962848","CENTER_NAME":"EARTH","MEAN_MOTION_DOT":"0.00007078","PERIAPSIS":"546.477","LAUNCH_DATE":"2020-10-24","OBJECT_TYPE":"PAYLOAD","COUNTRY_CODE":"US"},{"OBJECT_TYPE":"PAYLOAD","COUNTRY_CODE":"US","EPOCH":"2023-07-03T15:26:51.354816","CENTER_NAME":"EARTH","MEAN_MOTION_DOT":"0.00010174","PERIAPSIS":"546.331","LAUNCH_DATE":"2020-10-24","MEAN_MOTION_DDOT":"0.0000000000000","MEAN_ANOMALY":"258.7403","ELEMENT_SET_NO":"999","SEMIMAJOR_AXIS":"6925.289","MEAN_MOTION":"15.06419527","ECCENTRICITY":"0.00011880","SITE":"AFETR","PERIOD":"95.591","TIME_SYSTEM":"UTC","ARG_OF_PERICENTER":"101.3720","REF_FRAME":"TEME","GP_ID":"234698815","TLE_LINE1":"1 46794U 20074BH  23184.64364994  .00010174  00000-0  70053-3 0  9997","RCS_SIZE":"LARGE","REV_AT_EPOCH":"14863","FILE":"3948848","NORAD_CAT_ID":"46794","MEAN_ELEMENT_THEORY":"SGP4","INCLINATION":"53.0548","DECAY_DATE":null,"OBJECT_NAME":"STARLINK-1942","BSTAR":"0.00070053000000","RA_OF_ASC_NODE":"41.2200","APOAPSIS":"547.976","EPHEMERIS_TYPE":"0","TLE_LINE2":"2 46794  53.0548  41.2200 0001188 101.3720 258.7403 15.06419527148639","CLASSIFICATION_TYPE":"U","OBJECT_ID":"2020-074BH"},{"SEMIMAJOR_AXIS":"6925.288","ELEMENT_SET_NO":"999","MEAN_MOTION":"15.06419745","MEAN_MOTION_DDOT":"0.0000000000000","MEAN_ANOMALY":"251.7862","EPOCH":"2023-07-03T18:02:05.679168","LAUNCH_DATE":"2020-10-24","PERIAPSIS":"546.126","MEAN_MOTION_DOT":"0.00003440","CENTER_NAME":"EARTH","OBJECT_TYPE":"PAYLOAD","COUNTRY_CODE":"US","FILE":"3948717","TLE_LINE1":"1 46796U 20074BK  23184.75145462  .00003440  00000-0  24961-3 0  9993","REV_AT_EPOCH":"14879","RCS_SIZE":"LARGE","REF_FRAME":"TEME","GP_ID":"234696450","ECCENTRICITY":"0.00014830","TIME_SYSTEM":"UTC","PERIOD":"95.591","ARG_OF_PERICENTER":"108.3289","SITE":"AFETR","OBJECT_NAME":"STARLINK-1944","DECAY_DATE":null,"MEAN_ELEMENT_THEORY":"SGP4","NORAD_CAT_ID":"46796","INCLINATION":"53.0555","TLE_LINE2":"2 46796  53.0555  30.7329 0001483 108.3289 251.7862 15.06419745148790","EPHEMERIS_TYPE":"0","OBJECT_ID":"2020-074BK","CLASSIFICATION_TYPE":"U","RA_OF_ASC_NODE":"30.7329","APOAPSIS":"548.180","BSTAR":"0.00024961000000"},{"CLASSIFICATION_TYPE":"U","OBJECT_ID":"2020-074BM","TLE_LINE2":"2 46798  53.0547  56.1911 0001315  87.7952 272.3187 15.06433121148493","EPHEMERIS_TYPE":"0","APOAPSIS":"548.023","RA_OF_ASC_NODE":"56.1911","BSTAR":"0.00107060000000","OBJECT_NAME":"STARLINK-1948","DECAY_DATE":null,"INCLINATION":"53.0547","MEAN_ELEMENT_THEORY":"SGP4","NORAD_CAT_ID":"46798","FILE":"3948809","RCS_SIZE":"LARGE","TLE_LINE1":"1 46798U 20074BM  23184.65054440  .00015715  00000-0  10706-2 0  9998","REV_AT_EPOCH":"14849","GP_ID":"234698327","REF_FRAME":"TEME","PERIOD":"95.590","ARG_OF_PERICENTER":"87.7952","TIME_SYSTEM":"UTC","SITE":"AFETR","ECCENTRICITY":"0.00013150","MEAN_MOTION":"15.06433121","SEMIMAJOR_AXIS":"6925.247","ELEMENT_SET_NO":"999","MEAN_ANOMALY":"272.3187","MEAN_MOTION_DDOT":"0.0000000000000","LAUNCH_DATE":"2020-10-24","PERIAPSIS":"546.201","CENTER_NAME":"EARTH","MEAN_MOTION_DOT":"0.00015715","EPOCH":"2023-07-03T15:36:47.036160","COUNTRY_CODE":"US","OBJECT_TYPE":"PAYLOAD"}];
